#dP2024 12 29  0  0  0.00000000      96 __u+U IGS20 EXT  IAC
## 2347      0.00000000   900.00000000 60673 0.0000000000000
+   52   G02G03G04G05G06G07G08G09G10G11G12G13G14G15G16G17G18
+        G19G20G21G22G23G24G25G26G27G28G29G30G31G32R01R02R03
+        R04R05R07R08R09R11R12R14R15R16R17R18R19R20R21R22R24
+        R26  0  0  0  0  0  0  0  0  0  0  0  0  0  0  0  0
+          0  0  0  0  0  0  0  0  0  0  0  0  0  0  0  0  0
++         7  7  8  8  7  7  7  8  7  6  7  7  7  8  7  9  7
++         8  8  7  7  7  6  7  6  7  7  9  7  7  7 10  9  7
++         7  7  8  9  9  7  8  8  9  8  8  8  7 10  8  9  8
++         8  0  0  0  0  0  0  0  0  0  0  0  0  0  0  0  0
++         0  0  0  0  0  0  0  0  0  0  0  0  0  0  0  0  0
%c M  cc GPS ccc cccc cccc cccc cccc ccccc ccccc ccccc ccccc
%c cc cc ccc ccc cccc cccc cccc cccc ccccc ccccc ccccc ccccc
%f  0.0000000  0.000000000  0.00000000000  0.000000000000000
%f  0.0000000  0.000000000  0.00000000000  0.000000000000000
%i    0    0    0    0      0      0      0      0         0
%i    0    0    0    0      0      0      0      0         0
/* IAC                                ULTRA-RAPID PREDICTION
/* S/V CLOCKS ARE ALIGNED TO GNSS TIME                      
/* G:C1WC2W R:C1PC2P E:C1XC5X C:C2IC6I J:C1CC2S             
/* PCV:IGS20_2317 OL/AL:FES2004  NONE     YN ORB:CoN CLK:CoN
*  2024 12 29  0 30  0.00000000
PG02  18258.515425   5869.573190  19003.341500   -281.033963
PG03  18953.330502  -6730.566850  17122.311840    634.854402
PG04  26159.411845    140.083041  -5032.466265    503.340980
PG05 -12490.626891  -8299.769142 -22096.450772   -197.399444
PG06  -4515.773242 -24738.195518   8429.183877    -78.856714
PG07  11301.784373 -11062.353116 -20739.947530    -14.315045
PG08  25191.499519   6398.412171  -6665.557333    449.112833
PG09  22185.757531  -7272.405444 -12823.172224    506.527875
PG10  -8327.714799  22932.712580  10302.126829   -253.609127
PG11 -12212.011322 -23250.136878  -4134.965845   -752.639906
PG12 -18719.687513   2382.773859  18385.016841   -561.197036
PG13 -19251.824331 -13693.356433 -12607.903758    691.631188
PG14  11528.322408 -22921.841613   6413.126680    569.399458
PG15 -25657.530378  -3518.193420  -6746.706388    245.133419
PG16   8052.636769  13732.718211 -21553.477797    -91.566089
PG17   7927.056506 -13869.597512  21658.794843    499.012879
PG18  -9540.754876  13509.640432 -20698.188515   -659.483207
PG19  -4200.762267 -15699.024786  20948.962351    579.537008
PG20  -4842.864996 -19034.469285 -17855.732910    367.512528
PG21  19021.301138  12839.854316  14645.334537     98.936129
PG22   6243.981521 -22096.174102  13999.510533    -89.220078
PG23 -16820.359289  20021.059380  -3832.610301    392.922416
PG24 -18850.409466  -8208.310567  16556.680950   -469.404262
PG25 -19074.159091  15274.189396   9714.753715    497.527873
PG26    662.889079  21465.843323 -15559.157115    -26.522026
PG27  17597.407471  12788.436044 -15838.437896    -33.720245
PG28   3886.476843  24237.231918  10128.359587   -520.999686
PG29 -22527.785050   5189.147060 -13231.631834   -551.967246
PG30   2798.646932 -21287.502257 -15310.799663   -251.253143
PG31  10006.622892  24379.190466    330.560956   -219.051038
PG32  -2312.440947  15093.054690  21956.271019   -551.321930
PR01   2041.323853  10735.287243  23050.647274    109.364662
PR02  18391.473943   3764.512387  17354.031981    -38.853075
PR03  24866.065443  -5661.126821   1498.983754    114.052096
PR04  17640.361923 -11225.540504 -14596.143702    270.368128
PR05   1053.765857 -11097.993612 -22933.719680    142.917561
PR07 -24775.993566   5848.328662   -991.463480     97.821886
PR08 -17201.057561  11554.904940  14907.238631     -6.191368
PR09  -8194.759232 -11275.100973  21358.371740    228.892418
PR11 -10681.041672  20673.375397  10474.927138      2.689539
PR12  -1963.663299  23744.815444  -9074.911285     48.968786
PR14  12461.655839  -6976.804818 -21125.830285     27.503286
PR15  10291.451486 -21625.376960  -8761.631064     72.722285
PR16   2022.159882 -23771.317635   8983.229234     32.026356
PR17  16256.754422   4078.767908  19227.704070    152.607766
PR18   5402.677707  -9526.606453  23055.262249    179.167147
PR19  -6248.359937 -18310.670080  16631.999562   -303.587729
PR20 -17847.342863 -17843.442632  -3543.436666   -123.903584
PR21 -16715.200022  -5347.879678 -18515.082709   -163.491399
PR22  -4826.233698  10691.054516 -22621.036524    -53.203758
PR24  18891.639027  16647.233899   4056.948706    -85.940411
PR26 -18640.155412  11279.923444  13300.565901   -132.334429
*  2024 12 29  0 45  0.00000000
PG02  19186.383235   7625.955291  17388.535854   -281.025858
PG03  17868.833723  -4947.319255  18807.758209    634.861471
PG04  26547.989323    406.050642  -2213.260912    503.346408
PG05 -11190.004234 -10405.998419 -21893.795020   -197.400455
PG06  -3901.507367 -23804.997203  11050.113313    -78.881728
PG07  12464.120238  -8825.192061 -21172.171601    -14.314329
PG08  24298.015094   6600.248688  -9277.000972    449.120464
PG09  23489.417611  -7004.565487 -10411.774808    506.541936
PG10  -9043.281999  23658.319846   7625.244214   -253.623368
PG11 -12120.474552 -23632.099204  -1295.051309   -752.639624
PG12 -17443.645218    540.940227  19721.307053   -561.199081
PG13 -17728.964047 -13518.243122 -14850.076147    691.632445
PG14  12115.182508 -23212.744406   3656.007521    569.406163
PG15 -24827.896153  -3870.760196  -9345.142619    245.137509
PG16   6506.435609  15515.186021 -20801.874495    -91.557470
PG17  10245.478066 -13516.823071  20898.792953    498.997868
PG18 -10621.588348  11342.957785 -21476.853880   -659.482417
PG19  -1779.012059 -15308.936973  21532.158803    579.541217
PG20  -3910.108655 -20758.863500 -16096.077872    367.512257
PG21  19674.196633  14147.197847  12443.443056     98.937952
PG22   7270.682925 -23071.548333  11702.718311    -89.222087
PG23 -16666.700985  19397.927345  -6660.722550    392.929280
PG24 -19647.132901  -9900.179731  14686.973504   -469.401091
PG25 -18593.377747  14024.180945  12161.445577    497.527444
PG26   -377.613430  22782.843607 -13503.591259    -26.535205
PG27  15743.014006  12812.873953 -17660.764911    -33.719846
PG28   3088.074789  23187.811194  12563.943738   -521.008876
PG29 -23852.328383   4807.700014 -10840.030459   -551.964271
PG30   3841.875566 -19685.220019 -17128.516645   -251.245692
PG31   9633.947305  24297.180144   3184.367552   -219.050325
PG32  -4753.417608  14914.783496  21662.410554   -551.316138
PR01   -638.249630  11622.947867  22699.633963    109.365926
PR02  16192.511803   4263.603850  19317.368633    -38.852838
PR03  24457.896361  -5720.679596   4687.472278    114.052704
PR04  19182.526307 -11814.796863 -11953.724588    270.369518
PR05   3734.894877 -11881.104724 -22254.155829    142.918168
PR07 -24417.139457   5914.423965  -4196.931958     97.822594
PR08 -18767.623654  12151.323247  12301.589013     -6.191345
PR09  -7713.872648 -13779.729006  20018.882811    228.894401
PR11 -10228.523415  19278.588995  13225.057885      2.687906
PR12  -2060.565363  24683.581728  -6048.796010     48.969269
PR14  11831.818998  -4380.706622 -22161.734438     27.503388
PR15   9888.617269 -20426.315882 -11630.108138     72.721963
PR16   2094.716025 -24700.903387   5940.514707     32.026562
PR17  17953.213606   5561.742197  17239.529681    152.610827
PR18   7421.811934  -7508.679844  23242.693847    179.168923
PR19  -4849.807870 -16627.159607  18734.400136   -303.588876
PR20 -18167.436274 -17872.045906   -307.741515   -123.903620
PR21 -18343.286298  -6768.215024 -16389.846082   -163.494236
PR22  -6774.511509   8649.499632 -22989.602891    -53.205234
PR24  19210.279641  16749.691519    861.740349    -85.941715
PR26 -20005.423636  11839.112788  10541.996751   -132.334052
EOF
